CCSDS_OMM_VERS = 2.0
CREATION_DATE  = 
ORIGINATOR     = 

OBJECT_NAME    = CORAL
OBJECT_ID      = 1998-067YA
CENTER_NAME    = EARTH
REF_FRAME      = TEME
TIME_SYSTEM    = UTC
MEAN_ELEMENT_THEORY = SGP/SGP4

EPOCH          = 2026-04-03T14:41:41.863776
MEAN_MOTION    = 15.58866079
ECCENTRICITY   = .00134441
INCLINATION    = 51.6283
RA_OF_ASC_NODE = 306.8347
ARG_OF_PERICENTER = 267.8718
MEAN_ANOMALY   = 92.0735

EPHEMERIS_TYPE = 0
CLASSIFICATION_TYPE = U
NORAD_CAT_ID   = 67684
ELEMENT_SET_NO = 999
REV_AT_EPOCH   = 867
BSTAR          = .16032574E-2
MEAN_MOTION_DOT = .128594E-2
MEAN_MOTION_DDOT = 0

CCSDS_OMM_VERS = 2.0
CREATION_DATE  = 
ORIGINATOR     = 

OBJECT_NAME    = GXIBA-1
OBJECT_ID      = 1998-067YB
CENTER_NAME    = EARTH
REF_FRAME      = TEME
TIME_SYSTEM    = UTC
MEAN_ELEMENT_THEORY = SGP/SGP4

EPOCH          = 2026-04-02T23:27:52.879104
MEAN_MOTION    = 15.54544320
ECCENTRICITY   = .00123409
INCLINATION    = 51.6304
RA_OF_ASC_NODE = 310.8473
ARG_OF_PERICENTER = 271.8778
MEAN_ANOMALY   = 88.0799

EPHEMERIS_TYPE = 0
CLASSIFICATION_TYPE = U
NORAD_CAT_ID   = 67685
ELEMENT_SET_NO = 999
REV_AT_EPOCH   = 856
BSTAR          = .10703359E-2
MEAN_MOTION_DOT = .72331E-3
MEAN_MOTION_DDOT = 0

CCSDS_OMM_VERS = 2.0
CREATION_DATE  = 
ORIGINATOR     = 

OBJECT_NAME    = UITMSAT-2
OBJECT_ID      = 1998-067YC
CENTER_NAME    = EARTH
REF_FRAME      = TEME
TIME_SYSTEM    = UTC
MEAN_ELEMENT_THEORY = SGP/SGP4

EPOCH          = 2026-04-03T14:27:01.385568
MEAN_MOTION    = 15.55741331
ECCENTRICITY   = .00094387
INCLINATION    = 51.6305
RA_OF_ASC_NODE = 307.5197
ARG_OF_PERICENTER = 248.7743
MEAN_ANOMALY   = 111.2240

EPHEMERIS_TYPE = 0
CLASSIFICATION_TYPE = U
NORAD_CAT_ID   = 67686
ELEMENT_SET_NO = 999
REV_AT_EPOCH   = 866
BSTAR          = .11733335E-2
MEAN_MOTION_DOT = .82925E-3
MEAN_MOTION_DDOT = 0

CCSDS_OMM_VERS = 2.0
CREATION_DATE  = 
ORIGINATOR     = 

OBJECT_NAME    = HMU-SAT2
OBJECT_ID      = 1998-067YD
CENTER_NAME    = EARTH
REF_FRAME      = TEME
TIME_SYSTEM    = UTC
MEAN_ELEMENT_THEORY = SGP/SGP4

EPOCH          = 2026-04-03T15:02:02.924736
MEAN_MOTION    = 15.54358884
ECCENTRICITY   = .00089184
INCLINATION    = 51.6306
RA_OF_ASC_NODE = 307.6829
ARG_OF_PERICENTER = 251.3290
MEAN_ANOMALY   = 108.6733

EPHEMERIS_TYPE = 0
CLASSIFICATION_TYPE = U
NORAD_CAT_ID   = 67687
ELEMENT_SET_NO = 999
REV_AT_EPOCH   = 858
BSTAR          = .94855151E-3
MEAN_MOTION_DOT = .63442E-3
MEAN_MOTION_DDOT = 0

CCSDS_OMM_VERS = 2.0
CREATION_DATE  = 
ORIGINATOR     = 

OBJECT_NAME    = LEOPARD
OBJECT_ID      = 1998-067YE
CENTER_NAME    = EARTH
REF_FRAME      = TEME
TIME_SYSTEM    = UTC
MEAN_ELEMENT_THEORY = SGP/SGP4

EPOCH          = 2026-04-03T00:46:20.051328
MEAN_MOTION    = 15.55151529
ECCENTRICITY   = .00091814
INCLINATION    = 51.6305
RA_OF_ASC_NODE = 310.4638
ARG_OF_PERICENTER = 245.8702
MEAN_ANOMALY   = 114.1330

EPHEMERIS_TYPE = 0
CLASSIFICATION_TYPE = U
NORAD_CAT_ID   = 67688
ELEMENT_SET_NO = 999
REV_AT_EPOCH   = 849
BSTAR          = .12198426E-2
MEAN_MOTION_DOT = .84376E-3
MEAN_MOTION_DDOT = 0

CCSDS_OMM_VERS = 2.0
CREATION_DATE  = 
ORIGINATOR     = 

OBJECT_NAME    = CREW DRAGON 12
OBJECT_ID      = 2026-031A
CENTER_NAME    = EARTH
REF_FRAME      = TEME
TIME_SYSTEM    = UTC
MEAN_ELEMENT_THEORY = SGP/SGP4

EPOCH          = 2026-04-03T11:43:28.524576
MEAN_MOTION    = 15.48743801
ECCENTRICITY   = .00062343
INCLINATION    = 51.6327
RA_OF_ASC_NODE = 309.7562
ARG_OF_PERICENTER = 267.4493
MEAN_ANOMALY   = 92.5781

EPHEMERIS_TYPE = 0
CLASSIFICATION_TYPE = U
NORAD_CAT_ID   = 67796
ELEMENT_SET_NO = 999
REV_AT_EPOCH   = 56014
BSTAR          = .22309225E-3
MEAN_MOTION_DOT = .11755E-3
MEAN_MOTION_DDOT = 0

CCSDS_OMM_VERS = 2.0
CREATION_DATE  = 
ORIGINATOR     = 

OBJECT_NAME    = PROGRESS-MS 33
OBJECT_ID      = 2026-058A
CENTER_NAME    = EARTH
REF_FRAME      = TEME
TIME_SYSTEM    = UTC
MEAN_ELEMENT_THEORY = SGP/SGP4

EPOCH          = 2026-04-03T11:43:28.524576
MEAN_MOTION    = 15.48743801
ECCENTRICITY   = .00062343
INCLINATION    = 51.6327
RA_OF_ASC_NODE = 309.7562
ARG_OF_PERICENTER = 267.4493
MEAN_ANOMALY   = 92.5781

EPHEMERIS_TYPE = 0
CLASSIFICATION_TYPE = U
NORAD_CAT_ID   = 68319
ELEMENT_SET_NO = 999
REV_AT_EPOCH   = 125
BSTAR          = .22309225E-3
MEAN_MOTION_DOT = .11755E-3
MEAN_MOTION_DDOT = 0

